{
    "links": {
        "self": "http://www.neowsapp.com/rest/v1/neo/54016374?api_key=iIulBulltgU6a56xZRHN4H3l9WmuAYTsLGpBGhQ2"
    },
    "id": "54016374",
    "neo_reference_id": "54016374",
    "name": "(2020 FL5)",
    "designation": "2020 FL5",
    "nasa_jpl_url": "http://ssd.jpl.nasa.gov/sbdb.cgi?sstr=54016374",
    "absolute_magnitude_h": 23.2,
    "estimated_diameter": {
        "kilometers": {
            "estimated_diameter_min": 0.0608912622,
            "estimated_diameter_max": 0.1361570015
        },
        "meters": {
            "estimated_diameter_min": 60.8912622106,
            "estimated_diameter_max": 136.1570015386
        },
        "miles": {
            "estimated_diameter_min": 0.0378360645,
            "estimated_diameter_max": 0.0846040122
        },
        "feet": {
            "estimated_diameter_min": 199.7744887109,
            "estimated_diameter_max": 446.7093369279
        }
    },
    "is_potentially_hazardous_asteroid": false,
    "close_approach_data": [
        {
            "close_approach_date": "1955-04-14",
            "close_approach_date_full": "1955-Apr-14 07:39",
            "epoch_date_close_approach": -464458860000,
            "relative_velocity": {
                "kilometers_per_second": "30.4341550576",
                "kilometers_per_hour": "109562.9582075094",
                "miles_per_hour": "68078.1614484383"
            },
            "miss_distance": {
                "astronomical": "0.4660807107",
                "lunar": "181.3053964623",
                "kilometers": "69724681.568806209",
                "miles": "43324908.1241713242"
            },
            "orbiting_body": "Earth"
        },
        {
            "close_approach_date": "2020-03-15",
            "close_approach_date_full": "2020-Mar-15 19:32",
            "epoch_date_close_approach": 1584300720000,
            "relative_velocity": {
                "kilometers_per_second": "14.4166211071",
                "kilometers_per_hour": "51899.8359856302",
                "miles_per_hour": "32248.5397545156"
            },
            "miss_distance": {
                "astronomical": "0.092404069",
                "lunar": "35.945182841",
                "kilometers": "13823451.90173303",
                "miles": "8589494.711574614"
            },
            "orbiting_body": "Earth"
        }
    ],
    "orbital_data": {
        "orbit_id": "2",
        "orbit_determination_date": "2020-04-03 06:34:51",
        "first_observation_date": "2020-03-23",
        "last_observation_date": "2020-04-02",
        "data_arc_in_days": 10,
        "observations_used": 24,
        "orbit_uncertainty": "9",
        "minimum_orbit_intersection": ".0558441",
        "jupiter_tisserand_invariant": "4.204",
        "epoch_osculation": "2458932.5",
        "eccentricity": ".5846815943027494",
        "semi_major_axis": "1.569765479409498",
        "inclination": "3.245227344269606",
        "ascending_node_longitude": "87.17901218607166",
        "orbital_period": "718.3739714730826",
        "perihelion_distance": ".6519524962269332",
        "perihelion_argument": "7.185320389488782",
        "aphelion_distance": "2.487578462592064",
        "perihelion_time": "2458875.169342301299",
        "mean_anomaly": "28.73021238396261",
        "mean_motion": ".501131742373393",
        "equinox": "J2000",
        "orbit_class": {
            "orbit_class_type": "APO",
            "orbit_class_description": "Near-Earth asteroid orbits which cross the Earth’s orbit similar to that of 1862 Apollo",
            "orbit_class_range": "a (semi-major axis) > 1.0 AU; q (perihelion) < 1.017 AU"
        }
    },
    "is_sentry_object": false
}